{
    "links": {
        "self": "http://www.neowsapp.com/rest/v1/neo/54054321?api_key=iIulBulltgU6a56xZRHN4H3l9WmuAYTsLGpBGhQ2"
    },
    "id": "54054321",
    "neo_reference_id": "54054321",
    "name": "(2020 RP6)",
    "designation": "2020 RP6",
    "nasa_jpl_url": "http://ssd.jpl.nasa.gov/sbdb.cgi?sstr=54054321",
    "absolute_magnitude_h": 24.758,
    "estimated_diameter": {
        "kilometers": {
            "estimated_diameter_min": 0.0297135797,
            "estimated_diameter_max": 0.0664415842
        },
        "meters": {
            "estimated_diameter_min": 29.7135797451,
            "estimated_diameter_max": 66.4415841649
        },
        "miles": {
            "estimated_diameter_min": 0.0184631568,
            "estimated_diameter_max": 0.0412848736
        },
        "feet": {
            "estimated_diameter_min": 97.485500971,
            "estimated_diameter_max": 217.9842069917
        }
    },
    "is_potentially_hazardous_asteroid": false,
    "close_approach_data": [
        {
            "close_approach_date": "2020-09-20",
            "close_approach_date_full": "2020-Sep-20 07:19",
            "epoch_date_close_approach": 1600586340000,
            "relative_velocity": {
                "kilometers_per_second": "7.945709019",
                "kilometers_per_hour": "28604.552468366",
                "miles_per_hour": "17773.75650458"
            },
            "miss_distance": {
                "astronomical": "0.0488850272",
                "lunar": "19.0162755808",
                "kilometers": "7313095.944012064",
                "miles": "4544147.1047079232"
            },
            "orbiting_body": "Earth"
        },
        {
            "close_approach_date": "2104-08-27",
            "close_approach_date_full": "2104-Aug-27 09:56",
            "epoch_date_close_approach": 4249274160000,
            "relative_velocity": {
                "kilometers_per_second": "14.3998123804",
                "kilometers_per_hour": "51839.3245692996",
                "miles_per_hour": "32210.9403136295"
            },
            "miss_distance": {
                "astronomical": "0.241580259",
                "lunar": "93.974720751",
                "kilometers": "36139892.18044833",
                "miles": "22456287.689033754"
            },
            "orbiting_body": "Earth"
        }
    ],
    "orbital_data": {
        "orbit_id": "9",
        "orbit_determination_date": "2020-10-26 06:51:18",
        "first_observation_date": "2020-09-14",
        "last_observation_date": "2020-09-26",
        "data_arc_in_days": 12,
        "observations_used": 58,
        "orbit_uncertainty": "7",
        "minimum_orbit_intersection": ".0213709",
        "jupiter_tisserand_invariant": "3.472",
        "epoch_osculation": "2459000.5",
        "eccentricity": ".5343017991721722",
        "semi_major_axis": "2.188569220399097",
        "inclination": "3.686938952680497",
        "ascending_node_longitude": "12.49639330710721",
        "orbital_period": "1182.602676350756",
        "perihelion_distance": "1.019212748327021",
        "perihelion_argument": "5.519114619408358",
        "aphelion_distance": "3.357925692471172",
        "perihelion_time": "2459128.811937960206",
        "mean_anomaly": "320.9401377238439",
        "mean_motion": ".3044133141241305",
        "equinox": "J2000",
        "orbit_class": {
            "orbit_class_type": "AMO",
            "orbit_class_description": "Near-Earth asteroid orbits similar to that of 1221 Amor",
            "orbit_class_range": "1.017 AU < q (perihelion) < 1.3 AU"
        }
    },
    "is_sentry_object": false
}